[{"OBJECT_NAME":"TECHNOSAT","OBJECT_ID":"2017-042E","EPOCH":"2026-03-09T21:27:07.546176","MEAN_MOTION":15.04288119,"ECCENTRICITY":0.00196291,"INCLINATION":97.4156,"RA_OF_ASC_NODE":230.4429,"ARG_OF_PERICENTER":75.0719,"MEAN_ANOMALY":285.2679,"EPHEMERIS_TYPE":0,"CLASSIFICATION_TYPE":"U","NORAD_CAT_ID":42829,"ELEMENT_SET_NO":999,"REV_AT_EPOCH":47177,"BSTAR":0.00032015047,"MEAN_MOTION_DOT":4.417e-5,"MEAN_MOTION_DDOT":0},{"OBJECT_NAME":"STARLINK-5915","OBJECT_ID":"2023-042B","EPOCH":"2026-03-09T07:44:09.880512","MEAN_MOTION":15.02549692,"ECCENTRICITY":0.00014594,"INCLINATION":43.0048,"RA_OF_ASC_NODE":58.2302,"ARG_OF_PERICENTER":265.0638,"MEAN_ANOMALY":95.0038,"EPHEMERIS_TYPE":0,"CLASSIFICATION_TYPE":"U","NORAD_CAT_ID":55987,"ELEMENT_SET_NO":999,"REV_AT_EPOCH":16285,"BSTAR":3.4359642e-5,"MEAN_MOTION_DOT":2.61e-6,"MEAN_MOTION_DDOT":0}]
